OBJECT_NAME,OBJECT_ID,EPOCH,MEAN_MOTION,ECCENTRICITY,INCLINATION,RA_OF_ASC_NODE,ARG_OF_PERICENTER,MEAN_ANOMALY,EPHEMERIS_TYPE,CLASSIFICATION_TYPE,NORAD_CAT_ID,ELEMENT_SET_NO,REV_AT_EPOCH,BSTAR,MEAN_MOTION_DOT,MEAN_MOTION_DDOT
GAOFEN-11 01,2018-063A,2026-07-21T15:33:54.597312,15.56202172,.00038204,97.1266,269.4487,176.1860,183.9426,0,U,43585,999,44570,.20645097E-3,.14375E-3,0
ICESAT-2,2018-070A,2026-07-21T12:45:59.018976,15.28247442,.00048492,92.0084,300.2608,44.3614,315.8023,0,U,43613,999,43770,.29143941E-3,.8021E-4,0
HYSIS,2018-096A,2026-07-21T15:44:06.903744,14.78618409,.00016807,97.9818,269.1306,74.3010,285.8386,0,U,43719,999,41251,.55260867E-4,.353E-5,0
KAZSTSAT,2018-099AB,2026-07-21T07:41:48.925824,14.99959816,.00071772,97.4306,232.7123,314.9974,45.0668,0,U,43783,999,41642,.18455081E-4,.173E-5,0
SAUDISAT 5A,2018-102A,2026-07-21T14:32:55.059648,15.28362830,.00097985,97.3045,263.5271,22.9597,337.2079,0,U,43831,999,42093,.1668546E-3,.454E-4,0
SAUDISAT 5B,2018-102C,2026-07-21T14:52:00.181920,15.28603614,.00105822,97.3154,266.6722,24.1851,335.9884,0,U,43833,999,42105,.15552228E-3,.4259E-4,0
GAOFEN-10R,2019-066A,2026-07-21T15:08:28.462272,14.83066505,.00065221,98.0513,156.4641,35.5243,324.6404,0,U,44622,999,36748,.10556893E-3,.804E-5,0
CARTOSAT-3,2019-081A,2026-07-21T14:29:54.937248,15.19211162,.00124731,97.4280,263.9133,39.1860,321.0275,0,U,44804,999,36869,.15401152E-3,.318E-4,0
GAOFEN-12 01,2019-082A,2026-07-21T14:48:14.014368,14.80482858,.00006833,97.8113,208.0894,68.9990,291.1295,0,U,44819,999,35918,.40805493E-4,.262E-5,0
CSG-1,2019-092A,2026-07-21T14:48:06.913152,14.82160129,.00014581,97.8900,25.7226,94.6168,265.5212,0,U,44873,999,35657,.3894783E-4,.258E-5,0
NEMO-HD,2020-061F,2026-07-21T14:06:04.649184,15.45230139,.00010442,97.1898,264.2044,114.7676,245.3682,0,U,46277,999,32729,.2203862E-3,.10386E-3,0
SENTINEL-6A,2020-086A,2026-07-21T14:16:51.888000,12.80930247,.00077809,66.0410,63.5873,269.6351,90.3772,0,U,46984,999,26473,-.31220533E-4,-.68E-6,0
CAS500-1,2021-022A,2026-07-21T14:54:15.618240,15.20115921,.00057583,97.3853,97.1694,148.4248,211.7334,0,U,47932,999,29599,.12313983E-3,.2594E-4,0
GAOFEN-12 02,2021-026A,2026-07-21T15:09:30.037824,14.80319288,.00061406,97.9940,200.6745,115.5909,244.5938,0,U,48079,999,28685,.39753147E-4,.25E-5,0
PLEIADES NEO 3,2021-034A,2026-07-21T15:03:09.508896,14.81664203,.00013744,97.8936,276.8985,99.9954,260.1414,0,U,48268,999,28275,.13320668E-3,.996E-5,0
PLEIADES NEO 4,2021-073E,2026-07-21T20:43:28.666272,14.81673902,.0001353,97.8942,277.1276,99.6678,260.4687,0,U,49070,999,26650,.14552E-3,.1093E-4,0
LANDSAT 9,2021-088A,2026-07-21T04:30:57.302208,14.57098343,.00010739,98.2264,271.9512,92.7639,267.3683,0,U,49260,999,25595,.58164762E-4,.217E-5,0
CSG-2,2022-008A,2026-07-21T15:36:41.325120,14.82146690,.00014946,97.8903,25.7494,90.0600,270.0784,0,U,51444,999,24169,-.36833242E-4,-.345E-5,0
GAOFEN-12 03,2022-069A,2026-07-21T16:00:59.760576,14.80082733,.00023538,97.8229,89.6608,66.9373,293.2087,0,U,52912,999,21971,.88430987E-4,.62E-5,0
SWOT,2022-173A,2026-07-21T15:26:41.938944,14.00172654,.00002148,77.6118,348.7929,70.3491,289.7684,0,U,54754,999,18397,.40400274E-4,.57E-6,0
GAOFEN-12 04,2023-123A,2026-07-21T14:53:52.041408,14.79783166,.00031593,97.9095,120.1219,36.4251,323.7175,0,U,57654,999,15772,.9464193E-4,.661E-5,0
RESURS-P 4,2024-061A,2026-07-21T14:45:00.332352,15.32305495,.00031795,97.2761,149.9204,79.7819,280.3782,0,U,59371,999,12903,.7299419E-4,.2201E-4,0
LEGION 1,2024-081A,2026-07-21T12:46:04.170144,15.16871034,.00078923,97.5002,280.0250,243.1889,116.8537,0,U,59625,999,12274,.13961439E-3,.2682E-4,0
LEGION 2,2024-081B,2026-07-21T15:04:57.073440,15.16851480,.00107383,97.5003,280.2171,208.9250,151.1389,0,U,59626,999,12276,.16535092E-3,.319E-4,0
ALOS-4 (DAICHI-4),2024-123A,2026-07-21T14:00:27.029088,14.79471020,.00015637,97.9221,299.2658,98.7411,261.3977,0,U,60182,999,11096,.13629272E-3,.967E-5,0
LEGION 3,2024-146A,2026-07-21T09:36:15.907104,15.15678198,.00075802,45.0013,207.1286,8.3660,351.7343,0,U,60452,999,10721,.11040816E-3,.1874E-4,0
LEGION 4,2024-146B,2026-07-21T14:20:25.769472,15.15711740,.00094363,45.0021,297.9380,153.0894,207.0476,0,U,60453,999,10609,.18597802E-3,.3343E-4,0
SENTINEL-2C,2024-157A,2026-07-21T10:31:09.067296,14.30816878,.00010211,98.5679,276.7335,107.9219,252.2075,0,U,60989,999,9788,.3624797E-4,.51E-6,0
IONOSFERA-M 1,2024-199A,2026-07-21T15:40:55.728192,14.22760050,.00020567,98.7127,75.4544,63.6350,296.5039,0,U,61735,999,13260,.31197306E-4,.26E-6,0
