{"epoch":1784710044,"count":18256,"objects":[{"id":"43585","name":"GAOFEN 11","type":"PAYLOAD","l1":"1 43585U 18063A   26202.64854858  .00014375  00000-0  20645-3 0  9993","l2":"2 43585  97.1266 269.4487 0003820 176.1860 183.9426 15.56202172445704"},{"id":"43613","name":"ICESAT-2","type":"PAYLOAD","l1":"1 43613U 18070A   26202.53193309  .00008021  00000-0  29144-3 0  9992","l2":"2 43613  92.0084 300.2608 0004849  44.3614 315.8023 15.28247442437700"},{"id":"43719","name":"HYSIS","type":"PAYLOAD","l1":"1 43719U 18096A   26202.65563546  .00000353  00000-0  55261-4 0  9994","l2":"2 43719  97.9818 269.1306 0001681  74.3010 285.8386 14.78618409412517"},{"id":"43783","name":"KAZSTSAT","type":"PAYLOAD","l1":"1 43783U 18099AB  26202.32070516  .00000173  00000-0  18455-4 0  9996","l2":"2 43783  97.4306 232.7123 0007177 314.9974  45.0668 14.99959816416422"},{"id":"43831","name":"SAUDISAT 5A","type":"PAYLOAD","l1":"1 43831U 18102A   26202.60619282  .00004540  00000-0  16685-3 0  9999","l2":"2 43831  97.3045 263.5271 0009798  22.9597 337.2079 15.28362830420939"},{"id":"43833","name":"SAUDISAT 5B","type":"PAYLOAD","l1":"1 43833U 18102C   26202.61944655  .00004259  00000-0  15552-3 0  9996","l2":"2 43833  97.3154 266.6722 0010582  24.1851 335.9884 15.28603614421058"},{"id":"44622","name":"GAOFEN 10R","type":"PAYLOAD","l1":"1 44622U 19066A   26202.63088498  .00000804  00000-0  10557-3 0  9991","l2":"2 44622  98.0513 156.4641 0006522  35.5243 324.6404 14.83066505367489"},{"id":"44804","name":"CARTOSAT 3","type":"PAYLOAD","l1":"1 44804U 19081A   26202.60410807  .00003180  00000-0  15401-3 0  9993","l2":"2 44804  97.4280 263.9133 0012473  39.1860 321.0275 15.19211162368694"},{"id":"44819","name":"GAOFEN 12","type":"PAYLOAD","l1":"1 44819U 19082A   26202.61682887  .00000262  00000-0  40805-4 0  9995","l2":"2 44819  97.8113 208.0894 0000683  68.9990 291.1295 14.80482858359189"},{"id":"44873","name":"CSG-1","type":"PAYLOAD","l1":"1 44873U 19092A   26202.61674668  .00000258  00000-0  38948-4 0  9994","l2":"2 44873  97.8900  25.7226 0001458  94.6168 265.5212 14.82160129356570"},{"id":"46277","name":"NEMO-HD","type":"PAYLOAD","l1":"1 46277U 20061F   26202.58755381  .00010386  00000-0  22039-3 0  9996","l2":"2 46277  97.1898 264.2044 0001044 114.7676 245.3682 15.45230139327299"},{"id":"46984","name":"S6 MICHAEL FREILICH","type":"PAYLOAD","l1":"1 46984U 20086A   26202.59504500 -.00000068  00000-0 -31221-4 0  9996","l2":"2 46984  66.0410  63.5873 0007781 269.6351  90.3772 12.80930247264733"},{"id":"47932","name":"CAS500-1","type":"PAYLOAD","l1":"1 47932U 21022A   26202.62101410  .00002594  00000-0  12314-3 0  9993","l2":"2 47932  97.3853  97.1694 0005758 148.4248 211.7334 15.20115921295996"},{"id":"48079","name":"GAOFEN 12 (02)","type":"PAYLOAD","l1":"1 48079U 21026A   26202.63159766  .00000250  00000-0  39753-4 0  9992","l2":"2 48079  97.9940 200.6745 0006141 115.5909 244.5938 14.80319288286852"},{"id":"48268","name":"PNEO3","type":"PAYLOAD","l1":"1 48268U 21034A   26202.62719339  .00000996  00000-0  13321-3 0  9997","l2":"2 48268  97.8936 276.8985 0001374  99.9954 260.1414 14.81664203282754"},{"id":"49070","name":"PNEO4","type":"PAYLOAD","l1":"1 49070U 21073E   26202.86352623  .00001093  00000-0  14552-3 0  9993","l2":"2 49070  97.8942 277.1276 0001353  99.6678 260.4687 14.81673902266503"},{"id":"49260","name":"LANDSAT 9","type":"PAYLOAD","l1":"1 49260U 21088A   26202.18816322  .00000217  00000-0  58165-4 0  9992","l2":"2 49260  98.2264 271.9512 0001074  92.7639 267.3683 14.57098343255954"},{"id":"51444","name":"CSG-2","type":"PAYLOAD","l1":"1 51444U 22008A   26202.65047830 -.00000345  00000-0 -36833-4 0  9996","l2":"2 51444  97.8903  25.7494 0001495  90.0600 270.0784 14.82146690241692"},{"id":"52912","name":"GAOFEN 12 (03)","type":"PAYLOAD","l1":"1 52912U 22069A   26202.66735834  .00000620  00000-0  88431-4 0  9998","l2":"2 52912  97.8229  89.6608 0002354  66.9373 293.2087 14.80082733219710"},{"id":"54754","name":"SWOT","type":"PAYLOAD","l1":"1 54754U 22173A   26202.64354096  .00000057  00000-0  40400-4 0  9993","l2":"2 54754  77.6118 348.7929 0000215  70.3491 289.7684 14.00172654183973"},{"id":"57654","name":"GAOFEN 12 04","type":"PAYLOAD","l1":"1 57654U 23123A   26202.62074122  .00000661  00000-0  94642-4 0  9996","l2":"2 57654  97.9095 120.1219 0003159  36.4251 323.7175 14.79783166157725"},{"id":"59371","name":"RESURS P4","type":"PAYLOAD","l1":"1 59371U 24061A   26202.61458718  .00002201  00000-0  72994-4 0  9990","l2":"2 59371  97.2761 149.9204 0003180  79.7819 280.3782 15.32305495129033"},{"id":"59625","name":"LEGION 1","type":"PAYLOAD","l1":"1 59625U 24081A   26202.53199271  .00002682  00000-0  13961-3 0  9992","l2":"2 59625  97.5002 280.0250 0007892 243.1889 116.8537 15.16871034122743"},{"id":"59626","name":"LEGION 2","type":"PAYLOAD","l1":"1 59626U 24081B   26202.62843835  .00003190  00000-0  16535-3 0  9990","l2":"2 59626  97.5003 280.2171 0010738 208.9250 151.1389 15.16851480122765"},{"id":"60182","name":"ALOS-4","type":"PAYLOAD","l1":"1 60182U 24123A   26202.58364617  .00000967  00000-0  13629-3 0  9997","l2":"2 60182  97.9221 299.2658 0001564  98.7411 261.3977 14.79471020110963"},{"id":"60452","name":"LEGION 3","type":"PAYLOAD","l1":"1 60452U 24146A   26202.40018411  .00001874  00000-0  11041-3 0  9995","l2":"2 60452  45.0013 207.1286 0007580   8.3660 351.7343 15.15678198107219"},{"id":"60453","name":"LEGION 4","type":"PAYLOAD","l1":"1 60453U 24146B   26202.59752048  .00003343  00000-0  18598-3 0  9994","l2":"2 60453  45.0021 297.9380 0009436 153.0894 207.0476 15.15711740106096"},{"id":"60989","name":"SENTINEL-2C","type":"PAYLOAD","l1":"1 60989U 24157A   26202.43829939  .00000051  00000-0  36248-4 0  9993","l2":"2 60989  98.5679 276.7335 0001021 107.9219 252.2075 14.30816878 97885"},{"id":"61735","name":"IONOSFERA-M 01","type":"PAYLOAD","l1":"1 61735U 24199A   26202.65342278  .00000026  00000-0  31197-4 0  9999","l2":"2 61735  98.7127  75.4544 0002057  63.6350 296.5039 14.22760050132607"}]}